      2.10          N: GNSS NAV DATA                        RINEX VERSION / TYPE
fic2rin                                 11/12/2021 00:17:22 PGM / RUN BY / DATE
                                                            END OF HEADER
 6 21 11 12  0  0  0.0 1.156958751380e-04 9.094947017729e-12 0.000000000000e+00
    9.100000000000e+01 3.134375000000e+01 4.013024301427e-09-2.020143362074e+00
    1.646578311920e-06 2.359532518312e-03 5.433335900307e-06 5.153610801697e+03
    4.320000000000e+05 1.862645149231e-09-1.680778984905e-01 9.126961231232e-08
    9.857518938945e-01 2.892500000000e+02-1.040098978697e+00-7.955331371484e-09
    1.414344627416e-10 1.000000000000e+00 2.183000000000e+03 0.000000000000e+00
    2.400000000000e+00 0.000000000000e+00 4.190951585770e-09 9.100000000000e+01
    4.248000000000e+05 4.000000000000e+00
 7 21 11 12  0  0  0.0 2.766703255475e-04 5.456968210638e-12 0.000000000000e+00
    5.600000000000e+01 3.503125000000e+01 4.859488131472e-09-3.051923028479e+00
    1.652166247368e-06 1.530828105751e-02 8.167698979378e-06 5.153721302032e+03
    4.320000000000e+05 2.607703208923e-08 2.976934656729e+00-2.719461917877e-07
    9.515231159914e-01 2.176875000000e+02-2.302126268297e+00-7.872113619416e-09
    2.560820954186e-10 1.000000000000e+00 2.183000000000e+03 0.000000000000e+00
    2.400000000000e+00 0.000000000000e+00-1.117587089539e-08 5.600000000000e+01
    4.248000000000e+05 4.000000000000e+00
 4 21 11 12  0  0  0.0-2.020508982241e-04 7.958078640513e-13 0.000000000000e+00
    5.400000000000e+01-5.421875000000e+01 4.350538360242e-09-5.733720787228e-01
   -2.795830368996e-06 1.517095253803e-03 1.035258173943e-05 5.153682857513e+03
    4.320000000000e+05 4.842877388000e-08 1.957134232531e+00 2.048909664154e-08
    9.605487617058e-01 1.772812500000e+02-3.126839044300e+00-7.880328247302e-09
    1.950081228711e-10 1.000000000000e+00 2.183000000000e+03 0.000000000000e+00
    2.400000000000e+00 0.000000000000e+00-4.190951585770e-09 3.100000000000e+02
    4.248000000000e+05 4.000000000000e+00
29 21 11 12  0  0  0.0-4.393151029944e-04-5.229594535194e-12 0.000000000000e+00
    3.500000000000e+01 4.121875000000e+01 3.879090151104e-09-1.545827044987e-01
    2.067536115646e-06 1.843670150265e-03 8.128583431244e-06 5.153560087204e+03
    4.320000000000e+05-1.490116119385e-08-1.144305575412e+00-2.980232238770e-08
    9.825591161482e-01 2.346875000000e+02 2.381553313438e+00-7.797824810703e-09
   -1.785788670980e-10 1.000000000000e+00 2.183000000000e+03 0.000000000000e+00
    2.400000000000e+00 0.000000000000e+00-1.024454832077e-08 3.500000000000e+01
    4.248000000000e+05 4.000000000000e+00
30 21 11 12  0  0  0.0-4.905606620014e-04-3.296918293927e-12 0.000000000000e+00
    2.100000000000e+01 3.646875000000e+01 5.281648573292e-09-3.104305522557e+00
    1.922249794006e-06 5.342854885384e-03 7.994472980499e-06 5.153617330551e+03
    4.320000000000e+05-3.911554813385e-08 2.991531397313e+00-7.450580596924e-08
    9.367067372755e-01 2.157812500000e+02-2.744824203391e+00-8.222128198928e-09
    2.542963067476e-10 1.000000000000e+00 2.183000000000e+03 0.000000000000e+00
    2.400000000000e+00 0.000000000000e+00 3.725290298462e-09 2.100000000000e+01
    4.248000000000e+05 4.000000000000e+00
31 21 11 12  0  0  0.0-1.496840268373e-04-1.932676241267e-12 0.000000000000e+00
    7.400000000000e+01 3.271875000000e+01 4.864131182016e-09 2.783774771759e+00
    1.704320311546e-06 1.036066061351e-02 8.121132850647e-06 5.153639268875e+03
    4.320000000000e+05-1.378357410431e-07 2.994643446851e+00-7.078051567078e-08
    9.557955901857e-01 2.214375000000e+02 3.303666146727e-01-7.957117160155e-09
    2.060800126311e-10 1.000000000000e+00 2.183000000000e+03 0.000000000000e+00
    2.400000000000e+00 0.000000000000e+00-1.303851604462e-08 7.400000000000e+01
    4.248000000000e+05 4.000000000000e+00
32 21 11 12  0  0  0.0-2.085696905851e-05-4.661160346586e-12 0.000000000000e+00
    5.300000000000e+01-4.225000000000e+01 4.507330605555e-09 5.438049814431e-01
   -2.304092049599e-06 5.190480267629e-03 1.054443418980e-05 5.153743429184e+03
    4.320000000000e+05-1.005828380585e-07 1.915709060698e+00 1.024454832077e-07
    9.573705078102e-01 1.752812500000e+02-2.389290085900e+00-8.008190716145e-09
    1.482204596914e-10 1.000000000000e+00 2.183000000000e+03 0.000000000000e+00
    2.400000000000e+00 0.000000000000e+00 4.656612873077e-10 5.300000000000e+01
    4.248000000000e+05 4.000000000000e+00
27 21 11 12  0  0  0.0-2.180235460401e-04-4.661160346586e-12 0.000000000000e+00
    4.900000000000e+01 5.015625000000e+01 4.146958451751e-09-1.949723878054e-01
    2.572312951088e-06 9.668610058725e-03 8.299946784973e-06 5.153652362823e+03
    4.320000000000e+05 3.166496753693e-08-1.218966190606e+00 1.061707735062e-07
    9.742327028511e-01 2.244375000000e+02 6.278036631368e-01-8.070693319629e-09
   -2.639395655709e-10 1.000000000000e+00 2.183000000000e+03 0.000000000000e+00
    2.400000000000e+00 0.000000000000e+00 1.862645149231e-09 4.900000000000e+01
    4.248000000000e+05 4.000000000000e+00
22 21 11 12  0  0  0.0-4.670429043472e-04 9.094947017729e-12 0.000000000000e+00
    5.600000000000e+01-7.471875000000e+01 5.158071997260e-09-1.301757874183e+00
   -3.773719072342e-06 6.728121079504e-03 4.570931196213e-06 5.153685142517e+03
    4.320000000000e+05-9.872019290924e-08 7.703488164403e-01 4.284083843231e-08
    9.371175758743e-01 2.795937500000e+02-8.799916898832e-01-8.624644965367e-09
    7.036007363663e-11 1.000000000000e+00 2.183000000000e+03 0.000000000000e+00
    2.400000000000e+00 0.000000000000e+00-1.769512891769e-08 5.600000000000e+01
    4.248000000000e+05 4.000000000000e+00
21 21 11 12  0  0  0.0 1.507261767983e-04 1.136868377216e-12 0.000000000000e+00
    6.200000000000e+01 3.375000000000e+01 4.660908431259e-09-4.801622489136e-02
    1.754611730576e-06 2.420571667608e-02 5.634501576424e-06 5.153617370605e+03
    4.320000000000e+05-2.328306436539e-07-2.480840104948e-01-4.433095455170e-07
    9.589813093522e-01 2.774062500000e+02-1.059945340829e+00-8.668932524407e-09
    1.360770967287e-10 1.000000000000e+00 2.183000000000e+03 0.000000000000e+00
    2.400000000000e+00 0.000000000000e+00-1.024454832077e-08 6.200000000000e+01
    4.248000000000e+05 4.000000000000e+00
19 21 11 12  0  0  0.0 7.803458720446e-05 5.002220859751e-12 0.000000000000e+00
    4.500000000000e+01 3.825000000000e+01 4.010524197288e-09 2.212945439226e+00
    2.041459083557e-06 8.957570185885e-03 8.212402462959e-06 5.153666107178e+03
    4.320000000000e+05 1.322478055954e-07-1.112123798797e+00 5.587935447693e-09
    9.792924083739e-01 2.280000000000e+02 1.972137367369e+00-7.713892743167e-09
   -2.539391490134e-10 1.000000000000e+00 2.183000000000e+03 0.000000000000e+00
    2.400000000000e+00 0.000000000000e+00-1.583248376846e-08 4.500000000000e+01
    4.248000000000e+05 4.000000000000e+00
13 21 11 12  0  0  0.0 2.132253721356e-04 5.684341886081e-12 0.000000000000e+00
    6.200000000000e+01-3.231250000000e+01 4.296607542379e-09-7.370409952073e-01
   -1.588836312294e-06 5.679641966708e-03 9.775161743164e-06 5.153681995392e+03
    4.320000000000e+05 4.097819328308e-08 2.056292541798e+00 6.519258022308e-08
    9.681294949366e-01 1.969062500000e+02 9.776909197683e-01-7.895686029873e-09
    1.775073938955e-10 1.000000000000e+00 2.183000000000e+03 0.000000000000e+00
    2.400000000000e+00 0.000000000000e+00-1.117587089539e-08 6.200000000000e+01
    4.248000000000e+05 4.000000000000e+00
24 21 11 12  0  0  0.0 2.660015597939e-04 4.206412995700e-12 0.000000000000e+00
    3.100000000000e+01 3.362500000000e+01 5.290220358912e-09-2.076090535470e+00
    1.518055796623e-06 1.196000538766e-02 7.703900337219e-06 5.153701614380e+03
    4.320000000000e+05 1.341104507446e-07 2.895856363287e+00-8.381903171539e-08
    9.349415730064e-01 2.150937500000e+02 7.776795574522e-01-8.222485356662e-09
    3.618007847406e-10 1.000000000000e+00 2.183000000000e+03 0.000000000000e+00
    2.400000000000e+00 0.000000000000e+00 2.328306436539e-09 3.100000000000e+01
    4.248000000000e+05 4.000000000000e+00
17 21 11 12  0  0  0.0 5.323598161340e-04 5.343281372916e-12 0.000000000000e+00
    3.200000000000e+01 4.112500000000e+01 4.034810923213e-09-1.557781792093e-01
    2.173706889153e-06 1.374463760294e-02 8.989125490189e-06 5.153701431274e+03
    4.320000000000e+05-2.179294824600e-07-1.157113736260e+00 4.656612873077e-08
    9.805959298251e-01 2.210625000000e+02-1.538907642892e+00-8.064264480413e-09
   -1.635782422618e-10 1.000000000000e+00 2.183000000000e+03 0.000000000000e+00
    2.400000000000e+00 0.000000000000e+00-1.117587089539e-08 3.200000000000e+01
    4.248000000000e+05 4.000000000000e+00
12 21 11 12  0  0  0.0-1.249848864973e-04-5.570655048359e-12 0.000000000000e+00
    1.360000000000e+02 2.103125000000e+01 4.376253717105e-09 2.537304070248e+00
    9.350478649139e-07 8.334107231349e-03 7.012858986855e-06 5.153654367447e+03
    4.320000000000e+05-2.048909664154e-08-2.194539694450e+00-1.266598701477e-07
    9.715389718121e-01 2.460625000000e+02 1.228949480050e+00-7.864256149264e-09
   -3.439428980308e-10 1.000000000000e+00 2.183000000000e+03 0.000000000000e+00
    2.400000000000e+00 0.000000000000e+00-1.257285475731e-08 1.360000000000e+02
    4.248000000000e+05 4.000000000000e+00
16 21 11 12  0  0  0.0-4.225634038448e-04-6.480149750132e-12 0.000000000000e+00
    7.000000000000e+01 2.571875000000e+01 4.542332063506e-09 6.635047291095e-01
    1.594424247742e-06 1.240753347520e-02 7.001683115959e-06 5.153783988953e+03
    4.320000000000e+05-2.793967723846e-08-2.175860765815e+00 1.322478055954e-07
    9.715216011229e-01 2.493437500000e+02 6.821573749585e-01-8.176769166685e-09
   -4.793056792911e-10 1.000000000000e+00 2.183000000000e+03 0.000000000000e+00
    2.400000000000e+00 0.000000000000e+00-1.024454832077e-08 7.000000000000e+01
    4.248000000000e+05 4.000000000000e+00
